{"type": "FeatureCollection", "features": [ {"type": "Feature", "properties": {"norad_id": 66489, "name": "STARLINK-35696", "group": "last-30-days", "lat": -40.80727783948091, "lon": 39.837368401858384, "alt_km": 415.5064068653983, "timestamp": "2025-12-08T03:50:05.783277+00:00", "meta": {"OBJECT_NAME": "STARLINK-35696", "OBJECT_ID": "2025-263E", "EPOCH": "2025-12-07T06:00:04.999968", "MEAN_MOTION": 15.55010537, "ECCENTRICITY": 0.00015564, "INCLINATION": 42.9998, "RA_OF_ASC_NODE": 157.2748, "ARG_OF_PERICENTER": 271.7717, "MEAN_ANOMALY": 289.5413, "EPHEMERIS_TYPE": 0, "CLASSIFICATION_TYPE": "U", "NORAD_CAT_ID": 66489, "ELEMENT_SET_NO": 999, "REV_AT_EPOCH": 475, "BSTAR": -0.03427263, "MEAN_MOTION_DOT": -0.02099647, "MEAN_MOTION_DDOT": 0}, "tle": {"line1": "1 66489U 25263E   25341.25005787 -.02099647  00000+0 -34273-1 0  9998", "line2": "2 66489  42.9998 157.2748 0001556 271.7717 289.5413 15.55010537  4759"}}, "geometry": {"type": "Point", "coordinates": [39.837368401858384, -40.80727783948091]}}, {"type": "Feature", "properties": {"norad_id": 66490, "name": "STARLINK-35693", "group": "last-30-days", "lat": -41.28049874467941, "lon": 42.33964390429114, "alt_km": 415.5641151402042, "timestamp": "2025-12-08T03:50:05.783290+00:00", "meta": {"OBJECT_NAME": "STARLINK-35693", "OBJECT_ID": "2025-263F", "EPOCH": "2025-12-07T06:00:04.999968", "MEAN_MOTION": 15.5500024, "ECCENTRICITY": 0.00012633, "INCLINATION": 43.0003, "RA_OF_ASC_NODE": 157.2704, "ARG_OF_PERICENTER": 263.977, "MEAN_ANOMALY": 299.2579, "EPHEMERIS_TYPE": 0, "CLASSIFICATION_TYPE": "U", "NORAD_CAT_ID": 66490, "ELEMENT_SET_NO": 999, "REV_AT_EPOCH": 475, "BSTAR": -0.033978764, "MEAN_MOTION_DOT": -0.02082715, "MEAN_MOTION_DDOT": 0}, "tle": {"line1": "1 66490U 25263F   25341.25005787 -.02082715  00000+0 -33979-1 0  9990", "line2": "2 66490  43.0003 157.2704 0001263 263.9770 299.2579 15.55000240  4750"}}, "geometry": {"type": "Point", "coordinates": [42.33964390429114, -41.28049874467941]}}, {"type": "Feature", "properties": {"norad_id": 66491, "name": "STARLINK-35663", "group": "last-30-days", "lat": -42.04525992705075, "lon": 47.33782318665797, "alt_km": 415.61604610902396, "timestamp": "2025-12-08T03:50:05.783300+00:00", "meta": {"OBJECT_NAME": "STARLINK-35663", "OBJECT_ID": "2025-263G", "EPOCH": "2025-12-07T06:00:04.999968", "MEAN_MOTION": 15.55003434, "ECCENTRICITY": 0.00012856, "INCLINATION": 43.0001, "RA_OF_ASC_NODE": 157.2605, "ARG_OF_PERICENTER": 268.6572, "MEAN_ANOMALY": 298.4102, "EPHEMERIS_TYPE": 0, "CLASSIFICATION_TYPE": "U", "NORAD_CAT_ID": 66491, "ELEMENT_SET_NO": 999, "REV_AT_EPOCH": 475, "BSTAR": -0.03407017, "MEAN_MOTION_DOT": -0.02087937, "MEAN_MOTION_DDOT": 0}, "tle": {"line1": "1 66491U 25263G   25341.25005787 -.02087937  00000+0 -34070-1 0  9995", "line2": "2 66491  43.0001 157.2605 0001285 268.6572 298.4102 15.55003434  4756"}}, "geometry": {"type": "Point", "coordinates": [47.33782318665797, -42.04525992705075]}}, {"type": "Feature", "properties": {"norad_id": 66492, "name": "STARLINK-35673", "group": "last-30-days", "lat": -42.346548471250266, "lon": 49.893696786781256, "alt_km": 415.54412839786346, "timestamp": "2025-12-08T03:50:05.783312+00:00", "meta": {"OBJECT_NAME": "STARLINK-35673", "OBJECT_ID": "2025-263H", "EPOCH": "2025-12-07T06:00:04.999968", "MEAN_MOTION": 15.55002521, "ECCENTRICITY": 0.00013819, "INCLINATION": 43.0001, "RA_OF_ASC_NODE": 157.2558, "ARG_OF_PERICENTER": 269.706, "MEAN_ANOMALY": 299.2768, "EPHEMERIS_TYPE": 0, "CLASSIFICATION_TYPE": "U", "NORAD_CAT_ID": 66492, "ELEMENT_SET_NO": 999, "REV_AT_EPOCH": 475, "BSTAR": -0.034009039, "MEAN_MOTION_DOT": -0.02084601, "MEAN_MOTION_DDOT": 0}, "tle": {"line1": "1 66492U 25263H   25341.25005787 -.02084601  00000+0 -34009-1 0  9993", "line2": "2 66492  43.0001 157.2558 0001381 269.7060 299.2768 15.55002521  4758"}}, "geometry": {"type": "Point", "coordinates": [49.893696786781256, -42.346548471250266]}}, {"type": "Feature", "properties": {"norad_id": 66493, "name": "STARLINK-35597", "group": "last-30-days", "lat": -42.591571740608764, "lon": 52.48219661953623, "alt_km": 415.592183686078, "timestamp": "2025-12-08T03:50:05.783322+00:00", "meta": {"OBJECT_NAME": "STARLINK-35597", "OBJECT_ID": "2025-263J", "EPOCH": "2025-12-07T06:00:04.999968", "MEAN_MOTION": 15.54994577, "ECCENTRICITY": 0.00012743, "INCLINATION": 43.0004, "RA_OF_ASC_NODE": 157.2503, "ARG_OF_PERICENTER": 270.6508, "MEAN_ANOMALY": 300.254, "EPHEMERIS_TYPE": 0, "CLASSIFICATION_TYPE": "U", "NORAD_CAT_ID": 66493, "ELEMENT_SET_NO": 999, "REV_AT_EPOCH": 475, "BSTAR": -0.033828492, "MEAN_MOTION_DOT": -0.02074127, "MEAN_MOTION_DDOT": 0}, "tle": {"line1": "1 66493U 25263J   25341.25005787 -.02074127  00000+0 -33828-1 0  9994", "line2": "2 66493  43.0004 157.2503 0001274 270.6508 300.2540 15.54994577  4752"}}, "geometry": {"type": "Point", "coordinates": [52.48219661953623, -42.591571740608764]}}, {"type": "Feature", "properties": {"norad_id": 66494, "name": "STARLINK-35689", "group": "last-30-days", "lat": -41.69314011426798, "lon": 44.84457347129551, "alt_km": 415.56822795061544, "timestamp": "2025-12-08T03:50:05.783332+00:00", "meta": {"OBJECT_NAME": "STARLINK-35689", "OBJECT_ID": "2025-263K", "EPOCH": "2025-12-07T06:00:04.999968", "MEAN_MOTION": 15.54996879, "ECCENTRICITY": 0.00012255, "INCLINATION": 43.0001, "RA_OF_ASC_NODE": 157.2654, "ARG_OF_PERICENTER": 255.4558, "MEAN_ANOMALY": 309.6965, "EPHEMERIS_TYPE": 0, "CLASSIFICATION_TYPE": "U", "NORAD_CAT_ID": 66494, "ELEMENT_SET_NO": 999, "REV_AT_EPOCH": 475, "BSTAR": -0.033898333, "MEAN_MOTION_DOT": -0.02078069, "MEAN_MOTION_DDOT": 0}, "tle": {"line1": "1 66494U 25263K   25341.25005787 -.02078069  00000+0 -33898-1 0  9991", "line2": "2 66494  43.0001 157.2654 0001225 255.4558 309.6965 15.54996879  4750"}}, "geometry": {"type": "Point", "coordinates": [44.84457347129551, -41.69314011426798]}}, {"type": "Feature", "properties": {"norad_id": 66495, "name": "STARLINK-35832", "group": "last-30-days", "lat": -42.77605142012633, "lon": 55.06620313023192, "alt_km": 415.52912853122143, "timestamp": "2025-12-08T03:50:05.783344+00:00", "meta": {"OBJECT_NAME": "STARLINK-35832", "OBJECT_ID": "2025-263L", "EPOCH": "2025-12-07T06:00:04.999968", "MEAN_MOTION": 15.54998928, "ECCENTRICITY": 0.00013481, "INCLINATION": 43.0005, "RA_OF_ASC_NODE": 157.2459, "ARG_OF_PERICENTER": 264.5498, "MEAN_ANOMALY": 308.2696, "EPHEMERIS_TYPE": 0, "CLASSIFICATION_TYPE": "U", "NORAD_CAT_ID": 66495, "ELEMENT_SET_NO": 999, "REV_AT_EPOCH": 475, "BSTAR": -0.033920242, "MEAN_MOTION_DOT": -0.02079484, "MEAN_MOTION_DDOT": 0}, "tle": {"line1": "1 66495U 25263L   25341.25005787 -.02079484  00000+0 -33920-1 0  9990", "line2": "2 66495  43.0005 157.2459 0001348 264.5498 308.2696 15.54998928  4751"}}, "geometry": {"type": "Point", "coordinates": [55.06620313023192, -42.77605142012633]}}, {"type": "Feature", "properties": {"norad_id": 66496, "name": "STARLINK-35909", "group": "last-30-days", "lat": -42.901820376064144, "lon": 57.673085264044644, "alt_km": 415.589348616164, "timestamp": "2025-12-08T03:50:05.783354+00:00", "meta": {"OBJECT_NAME": "STARLINK-35909", "OBJECT_ID": "2025-263M", "EPOCH": "2025-12-07T06:00:04.999968", "MEAN_MOTION": 15.54995942, "ECCENTRICITY": 0.00012661, "INCLINATION": 43.0001, "RA_OF_ASC_NODE": 157.2409, "ARG_OF_PERICENTER": 269.5422, "MEAN_ANOMALY": 305.1957, "EPHEMERIS_TYPE": 0, "CLASSIFICATION_TYPE": "U", "NORAD_CAT_ID": 66496, "ELEMENT_SET_NO": 999, "REV_AT_EPOCH": 475, "BSTAR": -0.033840874, "MEAN_MOTION_DOT": -0.02074892, "MEAN_MOTION_DDOT": 0}, "tle": {"line1": "1 66496U 25263M   25341.25005787 -.02074892  00000+0 -33841-1 0  9991", "line2": "2 66496  43.0001 157.2409 0001266 269.5422 305.1957 15.54995942  4753"}}, "geometry": {"type": "Point", "coordinates": [57.673085264044644, -42.901820376064144]}}, {"type": "Feature", "properties": {"norad_id": 66497, "name": "STARLINK-35899", "group": "last-30-days", "lat": -42.968073604553126, "lon": 60.24988630271631, "alt_km": 415.479640216653, "timestamp": "2025-12-08T03:50:05.783365+00:00", "meta": {"OBJECT_NAME": "STARLINK-35899", "OBJECT_ID": "2025-263N", "EPOCH": "2025-12-07T06:00:04.999968", "MEAN_MOTION": 15.5500322, "ECCENTRICITY": 0.00014968, "INCLINATION": 43.0003, "RA_OF_ASC_NODE": 157.2354, "ARG_OF_PERICENTER": 271.6398, "MEAN_ANOMALY": 305.0127, "EPHEMERIS_TYPE": 0, "CLASSIFICATION_TYPE": "U", "NORAD_CAT_ID": 66497, "ELEMENT_SET_NO": 999, "REV_AT_EPOCH": 475, "BSTAR": -0.034060756, "MEAN_MOTION_DOT": -0.02087547, "MEAN_MOTION_DDOT": 0}, "tle": {"line1": "1 66497U 25263N   25341.25005787 -.02087547  00000+0 -34061-1 0  9998", "line2": "2 66497  43.0003 157.2354 0001496 271.6398 305.0127 15.55003220  4754"}}, "geometry": {"type": "Point", "coordinates": [60.24988630271631, -42.968073604553126]}}, {"type": "Feature", "properties": {"norad_id": 66498, "name": "STARLINK-35907", "group": "last-30-days", "lat": -42.97583194785669, "lon": 62.8251698250536, "alt_km": 415.60978924263145, "timestamp": "2025-12-08T03:50:05.783374+00:00", "meta": {"OBJECT_NAME": "STARLINK-35907", "OBJECT_ID": "2025-263P", "EPOCH": "2025-12-07T06:00:04.999968", "MEAN_MOTION": 15.5500917, "ECCENTRICITY": 0.00013758, "INCLINATION": 43.0001, "RA_OF_ASC_NODE": 157.2295, "ARG_OF_PERICENTER": 267.7137, "MEAN_ANOMALY": 310.8556, "EPHEMERIS_TYPE": 0, "CLASSIFICATION_TYPE": "U", "NORAD_CAT_ID": 66498, "ELEMENT_SET_NO": 999, "REV_AT_EPOCH": 475, "BSTAR": -0.03431193, "MEAN_MOTION_DOT": -0.02101572, "MEAN_MOTION_DDOT": 0}, "tle": {"line1": "1 66498U 25263P   25341.25005787 -.02101572  00000+0 -34312-1 0  9993", "line2": "2 66498  43.0001 157.2295 0001375 267.7137 310.8556 15.55009170  4750"}}, "geometry": {"type": "Point", "coordinates": [62.8251698250536, -42.97583194785669]}}]}